{"type": "FeatureCollection", "features": [ {"type": "Feature", "properties": {"norad_id": 28659, "name": "DIRECTV 8", "group": "intelsat", "lat": -0.002669715559491352, "lon": -160.0425444633533, "alt_km": 35780.350409167746, "timestamp": "2025-12-11T15:53:39.209804+00:00", "meta": {"OBJECT_NAME": "DIRECTV 8", "OBJECT_ID": "2005-019A", "EPOCH": "2025-12-11T00:57:40.452192", "MEAN_MOTION": 1.00272438, "ECCENTRICITY": 0.00031212, "INCLINATION": 0.012, "RA_OF_ASC_NODE": 43.9684, "ARG_OF_PERICENTER": 221.3482, "MEAN_ANOMALY": 70.068, "EPHEMERIS_TYPE": 0, "CLASSIFICATION_TYPE": "U", "NORAD_CAT_ID": 28659, "ELEMENT_SET_NO": 999, "REV_AT_EPOCH": 7518, "BSTAR": 0, "MEAN_MOTION_DOT": 6e-08, "MEAN_MOTION_DDOT": 0}, "tle": {"line1": "1 28659U 05019A   25345.04005153  .00000006  00000+0  00000+0 0  9996", "line2": "2 28659   0.0120  43.9684 0003121 221.3482  70.0680  1.00272438 75187"}}, "geometry": {"type": "Point", "coordinates": [-160.0425444633533, -0.002669715559491352]}}, {"type": "Feature", "properties": {"norad_id": 28702, "name": "GALAXY 28 (G-28)", "group": "intelsat", "lat": 1.4314956319737688, "lon": -129.64459321558292, "alt_km": 35776.62872486152, "timestamp": "2025-12-11T15:53:39.209816+00:00", "meta": {"OBJECT_NAME": "GALAXY 28 (G-28)", "OBJECT_ID": "2005-022A", "EPOCH": "2025-12-11T04:52:38.653824", "MEAN_MOTION": 1.00270733, "ECCENTRICITY": 0.00027163, "INCLINATION": 2.8148, "RA_OF_ASC_NODE": 81.2995, "ARG_OF_PERICENTER": 182.5228, "MEAN_ANOMALY": 160.8173, "EPHEMERIS_TYPE": 0, "CLASSIFICATION_TYPE": "U", "NORAD_CAT_ID": 28702, "ELEMENT_SET_NO": 999, "REV_AT_EPOCH": 5008, "BSTAR": 0, "MEAN_MOTION_DOT": -1.81e-06, "MEAN_MOTION_DDOT": 0}, "tle": {"line1": "1 28702U 05022A   25345.20322516 -.00000181  00000+0  00000+0 0  9997", "line2": "2 28702   2.8148  81.2995 0002716 182.5228 160.8173  1.00270733 50084"}}, "geometry": {"type": "Point", "coordinates": [-129.64459321558292, 1.4314956319737688]}}, {"type": "Feature", "properties": {"norad_id": 29236, "name": "GALAXY 16 (G-16)", "group": "intelsat", "lat": 0.007464412385350917, "lon": -139.99703155020686, "alt_km": 35776.848837475736, "timestamp": "2025-12-11T15:53:39.209828+00:00", "meta": {"OBJECT_NAME": "GALAXY 16 (G-16)", "OBJECT_ID": "2006-023A", "EPOCH": "2025-12-11T05:00:38.584224", "MEAN_MOTION": 1.00272313, "ECCENTRICITY": 0.00026932, "INCLINATION": 0.0366, "RA_OF_ASC_NODE": 150.4834, "ARG_OF_PERICENTER": 106.5735, "MEAN_ANOMALY": 159.2686, "EPHEMERIS_TYPE": 0, "CLASSIFICATION_TYPE": "U", "NORAD_CAT_ID": 29236, "ELEMENT_SET_NO": 999, "REV_AT_EPOCH": 7108, "BSTAR": 0, "MEAN_MOTION_DOT": -1.21e-06, "MEAN_MOTION_DDOT": 0}, "tle": {"line1": "1 29236U 06023A   25345.20877991 -.00000121  00000+0  00000+0 0  9998", "line2": "2 29236   0.0366 150.4834 0002693 106.5735 159.2686  1.00272313 71083"}}, "geometry": {"type": "Point", "coordinates": [-139.99703155020686, 0.007464412385350917]}}, {"type": "Feature", "properties": {"norad_id": 29494, "name": "DIRECTV 9S", "group": "intelsat", "lat": 1.3646104745076792, "lon": -142.1896327809471, "alt_km": 35776.70948184509, "timestamp": "2025-12-11T15:53:39.209840+00:00", "meta": {"OBJECT_NAME": "DIRECTV 9S", "OBJECT_ID": "2006-043A", "EPOCH": "2025-12-11T05:00:38.584224", "MEAN_MOTION": 1.00271766, "ECCENTRICITY": 0.00030737, "INCLINATION": 1.9365, "RA_OF_ASC_NODE": 83.2249, "ARG_OF_PERICENTER": 179.5337, "MEAN_ANOMALY": 151.3624, "EPHEMERIS_TYPE": 0, "CLASSIFICATION_TYPE": "U", "NORAD_CAT_ID": 29494, "ELEMENT_SET_NO": 999, "REV_AT_EPOCH": 4949, "BSTAR": 0, "MEAN_MOTION_DOT": -1.07e-06, "MEAN_MOTION_DDOT": 0}, "tle": {"line1": "1 29494U 06043A   25345.20877991 -.00000107  00000+0  00000+0 0  9990", "line2": "2 29494   1.9365  83.2249 0003073 179.5337 151.3624  1.00271766 49498"}}, "geometry": {"type": "Point", "coordinates": [-142.1896327809471, 1.3646104745076792]}}, {"type": "Feature", "properties": {"norad_id": 31307, "name": "GALAXY 17 (G-17)", "group": "intelsat", "lat": 1.1647223441932737, "lon": -125.94467181856842, "alt_km": 35761.190329271754, "timestamp": "2025-12-11T15:53:39.209851+00:00", "meta": {"OBJECT_NAME": "GALAXY 17 (G-17)", "OBJECT_ID": "2007-016B", "EPOCH": "2025-12-11T04:52:38.653824", "MEAN_MOTION": 1.00272515, "ECCENTRICITY": 0.00059347, "INCLINATION": 2.4965, "RA_OF_ASC_NODE": 82.3008, "ARG_OF_PERICENTER": 163.5412, "MEAN_ANOMALY": 182.4997, "EPHEMERIS_TYPE": 0, "CLASSIFICATION_TYPE": "U", "NORAD_CAT_ID": 31307, "ELEMENT_SET_NO": 999, "REV_AT_EPOCH": 6791, "BSTAR": 0, "MEAN_MOTION_DOT": -2e-06, "MEAN_MOTION_DDOT": 0}, "tle": {"line1": "1 31307U 07016B   25345.20322516 -.00000200  00000+0  00000+0 0  9999", "line2": "2 31307   2.4965  82.3008 0005934 163.5412 182.4997  1.00272515 67912"}}, "geometry": {"type": "Point", "coordinates": [-125.94467181856842, 1.1647223441932737]}}, {"type": "Feature", "properties": {"norad_id": 31862, "name": "DIRECTV 10", "group": "intelsat", "lat": -0.00043893293268699757, "lon": -143.75419303442456, "alt_km": 35784.59393536627, "timestamp": "2025-12-11T15:53:39.209864+00:00", "meta": {"OBJECT_NAME": "DIRECTV 10", "OBJECT_ID": "2007-032A", "EPOCH": "2025-12-10T23:19:34.847904", "MEAN_MOTION": 1.00271412, "ECCENTRICITY": 3.801e-05, "INCLINATION": 0.0021, "RA_OF_ASC_NODE": 247.4466, "ARG_OF_PERICENTER": 326.2855, "MEAN_ANOMALY": 113.3201, "EPHEMERIS_TYPE": 0, "CLASSIFICATION_TYPE": "U", "NORAD_CAT_ID": 31862, "ELEMENT_SET_NO": 999, "REV_AT_EPOCH": 4370, "BSTAR": 0, "MEAN_MOTION_DOT": -9.8e-07, "MEAN_MOTION_DDOT": 0}, "tle": {"line1": "1 31862U 07032A   25344.97193111 -.00000098  00000+0  00000+0 0  9998", "line2": "2 31862   0.0021 247.4466 0000380 326.2855 113.3201  1.00271412 43703"}}, "geometry": {"type": "Point", "coordinates": [-143.75419303442456, -0.00043893293268699757]}}, {"type": "Feature", "properties": {"norad_id": 32253, "name": "INTELSAT 11 (IS-11)", "group": "intelsat", "lat": 2.9126526750259454, "lon": -170.60775922431864, "alt_km": 36111.32927660432, "timestamp": "2025-12-11T15:53:39.209875+00:00", "meta": {"OBJECT_NAME": "INTELSAT 11 (IS-11)", "OBJECT_ID": "2007-044B", "EPOCH": "2025-12-11T04:35:38.717376", "MEAN_MOTION": 0.99048278, "ECCENTRICITY": 0.00089795, "INCLINATION": 3.0765, "RA_OF_ASC_NODE": 80.9929, "ARG_OF_PERICENTER": 165.3171, "MEAN_ANOMALY": 135.252, "EPHEMERIS_TYPE": 0, "CLASSIFICATION_TYPE": "U", "NORAD_CAT_ID": 32253, "ELEMENT_SET_NO": 999, "REV_AT_EPOCH": 6658, "BSTAR": 0, "MEAN_MOTION_DOT": 8e-07, "MEAN_MOTION_DDOT": 0}, "tle": {"line1": "1 32253U 07044B   25345.19142034  .00000080  00000+0  00000+0 0  9999", "line2": "2 32253   3.0765  80.9929 0008979 165.3171 135.2520  0.99048278 66582"}}, "geometry": {"type": "Point", "coordinates": [-170.60775922431864, 2.9126526750259454]}}, {"type": "Feature", "properties": {"norad_id": 32388, "name": "HORIZONS-2", "group": "intelsat", "lat": 0.6275198587438315, "lon": -114.77430276628864, "alt_km": 35767.70990402146, "timestamp": "2025-12-11T15:53:39.209887+00:00", "meta": {"OBJECT_NAME": "HORIZONS-2", "OBJECT_ID": "2007-063B", "EPOCH": "2025-12-11T04:35:58.487424", "MEAN_MOTION": 1.00270171, "ECCENTRICITY": 0.00049542, "INCLINATION": 2.1178, "RA_OF_ASC_NODE": 82.9764, "ARG_OF_PERICENTER": 188.6576, "MEAN_ANOMALY": 163.7263, "EPHEMERIS_TYPE": 0, "CLASSIFICATION_TYPE": "U", "NORAD_CAT_ID": 32388, "ELEMENT_SET_NO": 999, "REV_AT_EPOCH": 6592, "BSTAR": 0, "MEAN_MOTION_DOT": -2.47e-06, "MEAN_MOTION_DDOT": 0}, "tle": {"line1": "1 32388U 07063B   25345.19164916 -.00000247  00000+0  00000+0 0  9998", "line2": "2 32388   2.1178  82.9764 0004954 188.6576 163.7263  1.00270171 65923"}}, "geometry": {"type": "Point", "coordinates": [-114.77430276628864, 0.6275198587438315]}}, {"type": "Feature", "properties": {"norad_id": 32729, "name": "DIRECTV 11", "group": "intelsat", "lat": -0.00806448164240931, "lon": -140.17021272267752, "alt_km": 35785.03011932227, "timestamp": "2025-12-11T15:53:39.209899+00:00", "meta": {"OBJECT_NAME": "DIRECTV 11", "OBJECT_ID": "2008-013A", "EPOCH": "2025-12-10T19:55:09.427872", "MEAN_MOTION": 1.00269537, "ECCENTRICITY": 4.84e-05, "INCLINATION": 0.0266, "RA_OF_ASC_NODE": 165.676, "ARG_OF_PERICENTER": 20.8459, "MEAN_ANOMALY": 92.8714, "EPHEMERIS_TYPE": 0, "CLASSIFICATION_TYPE": "U", "NORAD_CAT_ID": 32729, "ELEMENT_SET_NO": 999, "REV_AT_EPOCH": 4370, "BSTAR": 0, "MEAN_MOTION_DOT": -1.2e-06, "MEAN_MOTION_DDOT": 0}, "tle": {"line1": "1 32729U 08013A   25344.82997023 -.00000120  00000+0  00000+0 0  9995", "line2": "2 32729   0.0266 165.6760 0000484  20.8459  92.8714  1.00269537 43702"}}, "geometry": {"type": "Point", "coordinates": [-140.17021272267752, -0.00806448164240931]}}, {"type": "Feature", "properties": {"norad_id": 32951, "name": "GALAXY 18 (G-18)", "group": "intelsat", "lat": -0.02724450661372037, "lon": -164.00216456556953, "alt_km": 35780.73314067576, "timestamp": "2025-12-11T15:53:39.209911+00:00", "meta": {"OBJECT_NAME": "GALAXY 18 (G-18)", "OBJECT_ID": "2008-024A", "EPOCH": "2025-12-10T23:13:50.397888", "MEAN_MOTION": 1.00273115, "ECCENTRICITY": 0.00031095, "INCLINATION": 0.018, "RA_OF_ASC_NODE": 314.8239, "ARG_OF_PERICENTER": 309.1849, "MEAN_ANOMALY": 41.3852, "EPHEMERIS_TYPE": 0, "CLASSIFICATION_TYPE": "U", "NORAD_CAT_ID": 32951, "ELEMENT_SET_NO": 999, "REV_AT_EPOCH": 4396, "BSTAR": 0, "MEAN_MOTION_DOT": 3e-07, "MEAN_MOTION_DDOT": 0}, "tle": {"line1": "1 32951U 08024A   25344.96794442  .00000030  00000+0  00000+0 0  9998", "line2": "2 32951   0.0180 314.8239 0003109 309.1849  41.3852  1.00273115 43963"}}, "geometry": {"type": "Point", "coordinates": [-164.00216456556953, -0.02724450661372037]}}]}